[{"OBJECT_NAME":"STARLINK-4147","OBJECT_ID":"2022-086Q","EPOCH":"2026-03-09T15:05:16.586880","MEAN_MOTION":15.08827019,"ECCENTRICITY":0.0001418,"INCLINATION":53.2181,"RA_OF_ASC_NODE":194.3966,"ARG_OF_PERICENTER":94.1982,"MEAN_ANOMALY":265.9172,"EPHEMERIS_TYPE":0,"CLASSIFICATION_TYPE":"U","NORAD_CAT_ID":53256,"ELEMENT_SET_NO":999,"REV_AT_EPOCH":20105,"BSTAR":0.00013635,"MEAN_MOTION_DOT":1.882e-5,"MEAN_MOTION_DDOT":0},{"OBJECT_NAME":"CZ-4C R\/B","OBJECT_ID":"2012-066D","EPOCH":"2026-03-09T22:13:57.605952","MEAN_MOTION":13.71953349,"ECCENTRICITY":0.06158717,"INCLINATION":63.3882,"RA_OF_ASC_NODE":348.5087,"ARG_OF_PERICENTER":10.8771,"MEAN_ANOMALY":350.4906,"EPHEMERIS_TYPE":0,"CLASSIFICATION_TYPE":"U","NORAD_CAT_ID":39014,"ELEMENT_SET_NO":999,"REV_AT_EPOCH":66492,"BSTAR":0.00035049571,"MEAN_MOTION_DOT":1.149e-5,"MEAN_MOTION_DDOT":0}]
